start=new Date('2022-11-16T00:00:00.000Z').valueOf();
sats=[{"OBJECT_TYPE":"PAYLOAD","GP_ID":"217845201","COUNTRY_CODE":"US","CENTER_NAME":"EARTH","ELEMENT_SET_NO":"999","MEAN_MOTION_DOT":"0.00005971","PERIAPSIS":"546.010","APOAPSIS":"548.398","REF_FRAME":"TEME","TIME_SYSTEM":"UTC","RA_OF_ASC_NODE":"5.1114","TLE_LINE2":"2 47663  53.0568   5.1114 0001724  70.5114 289.6062 15.06403204 98969","FILE":"3657603","REV_AT_EPOCH":"9896","SITE":"AFETR","NORAD_CAT_ID":"47663","MEAN_ANOMALY":"289.6062","EPOCH":"2022-11-15T09:42:06.987456","DECAY_DATE":null,"BSTAR":"0.00041935000000","LAUNCH_DATE":"2021-02-16","RCS_SIZE":"LARGE","OBJECT_NAME":"STARLINK-2053","PERIOD":"95.592","OBJECT_ID":"2021-012AV","MEAN_MOTION_DDOT":"0.0000000000000","MEAN_MOTION":"15.06403204","SEMIMAJOR_AXIS":"6925.339","TLE_LINE1":"1 47663U 21012AV  22319.40424754  .00005971  00000-0  41935-3 0  9996","ARG_OF_PERICENTER":"70.5114","ECCENTRICITY":"0.00017240","MEAN_ELEMENT_THEORY":"SGP4","EPHEMERIS_TYPE":"0","CLASSIFICATION_TYPE":"U","INCLINATION":"53.0568"},{"TLE_LINE2":"2 47664  53.0552  83.3041 0001309 107.5438 252.5694 15.06395712 97906","FILE":"3657961","RA_OF_ASC_NODE":"83.3041","SITE":"AFETR","REV_AT_EPOCH":"9790","DECAY_DATE":null,"EPOCH":"2022-11-15T17:45:03.237120","MEAN_ANOMALY":"252.5694","NORAD_CAT_ID":"47664","BSTAR":"0.00013753000000","CENTER_NAME":"EARTH","COUNTRY_CODE":"US","ELEMENT_SET_NO":"999","GP_ID":"217904042","OBJECT_TYPE":"PAYLOAD","MEAN_MOTION_DOT":"0.00001767","APOAPSIS":"548.133","PERIAPSIS":"546.320","TIME_SYSTEM":"UTC","REF_FRAME":"TEME","ECCENTRICITY":"0.00013090","ARG_OF_PERICENTER":"107.5438","TLE_LINE1":"1 47664U 21012AW  22319.73962080  .00001767  00000-0  13753-3 0  9998","MEAN_ELEMENT_THEORY":"SGP4","INCLINATION":"53.0552","CLASSIFICATION_TYPE":"U","EPHEMERIS_TYPE":"0","RCS_SIZE":"LARGE","OBJECT_NAME":"STARLINK-2054","LAUNCH_DATE":"2021-02-16","OBJECT_ID":"2021-012AW","PERIOD":"95.592","MEAN_MOTION_DDOT":"0.0000000000000","SEMIMAJOR_AXIS":"6925.362","MEAN_MOTION":"15.06395712"},{"TLE_LINE1":"1 47665U 21012AX  22319.85251655 -.00000001  00000-0  18835-4 0  9999","ARG_OF_PERICENTER":"108.8913","ECCENTRICITY":"0.00014470","CLASSIFICATION_TYPE":"U","EPHEMERIS_TYPE":"0","INCLINATION":"53.0564","MEAN_ELEMENT_THEORY":"SGP4","PERIOD":"95.593","OBJECT_ID":"2021-012AX","LAUNCH_DATE":"2021-02-16","RCS_SIZE":"LARGE","OBJECT_NAME":"STARLINK-2056","MEAN_MOTION":"15.06392316","SEMIMAJOR_AXIS":"6925.372","MEAN_MOTION_DDOT":"0.0000000000000","REV_AT_EPOCH":"9798","SITE":"AFETR","TLE_LINE2":"2 47665  53.0564  77.8529 0001447 108.8913 251.2233 15.06392316 97984","FILE":"3657961","RA_OF_ASC_NODE":"77.8529","BSTAR":"0.00001883500000","NORAD_CAT_ID":"47665","MEAN_ANOMALY":"251.2233","EPOCH":"2022-11-15T20:27:37.429920","DECAY_DATE":null,"MEAN_MOTION_DOT":"-0.00000001","OBJECT_TYPE":"PAYLOAD","GP_ID":"217904294","CENTER_NAME":"EARTH","COUNTRY_CODE":"US","ELEMENT_SET_NO":"999","REF_FRAME":"TEME","TIME_SYSTEM":"UTC","PERIAPSIS":"546.235","APOAPSIS":"548.239"},{"MEAN_ELEMENT_THEORY":"SGP4","INCLINATION":"53.0558","EPHEMERIS_TYPE":"0","CLASSIFICATION_TYPE":"U","ECCENTRICITY":"0.00014580","ARG_OF_PERICENTER":"93.3285","TLE_LINE1":"1 47666U 21012AY  22319.64982570  .00000844  00000-0  75532-4 0  9995","MEAN_MOTION_DDOT":"0.0000000000000","SEMIMAJOR_AXIS":"6925.365","MEAN_MOTION":"15.06394698","RCS_SIZE":"LARGE","OBJECT_NAME":"STARLINK-2057","LAUNCH_DATE":"2021-02-16","OBJECT_ID":"2021-012AY","PERIOD":"95.592","DECAY_DATE":null,"EPOCH":"2022-11-15T15:35:44.940480","MEAN_ANOMALY":"266.7871","NORAD_CAT_ID":"47666","BSTAR":"0.00007553200000","FILE":"3657961","TLE_LINE2":"2 47666  53.0558  79.0564 0001458  93.3285 266.7871 15.06394698 97954","RA_OF_ASC_NODE":"79.0564","SITE":"AFETR","REV_AT_EPOCH":"9795","APOAPSIS":"548.240","PERIAPSIS":"546.220","TIME_SYSTEM":"UTC","REF_FRAME":"TEME","COUNTRY_CODE":"US","CENTER_NAME":"EARTH","ELEMENT_SET_NO":"999","GP_ID":"217905044","OBJECT_TYPE":"PAYLOAD","MEAN_MOTION_DOT":"0.00000844"},{"MEAN_MOTION_DOT":"-0.00001713","GP_ID":"217903293","ELEMENT_SET_NO":"999","COUNTRY_CODE":"US","CENTER_NAME":"EARTH","OBJECT_TYPE":"PAYLOAD","REF_FRAME":"TEME","TIME_SYSTEM":"UTC","PERIAPSIS":"546.259","APOAPSIS":"548.113","SITE":"AFETR","REV_AT_EPOCH":"9761","FILE":"3657961","TLE_LINE2":"2 47667  53.0549 102.8649 0001339  92.1279 267.9864 15.06409006 97610","RA_OF_ASC_NODE":"102.8649","BSTAR":"-0.00009612500000","DECAY_DATE":null,"NORAD_CAT_ID":"47667","EPOCH":"2022-11-15T20:05:42.230976","MEAN_ANOMALY":"267.9864","OBJECT_ID":"2021-012AZ","PERIOD":"95.592","LAUNCH_DATE":"2021-02-16","OBJECT_NAME":"STARLINK-2058","RCS_SIZE":"LARGE","MEAN_MOTION":"15.06409006","SEMIMAJOR_AXIS":"6925.321","MEAN_MOTION_DDOT":"0.0000000000000","ARG_OF_PERICENTER":"92.1279","ECCENTRICITY":"0.00013390","TLE_LINE1":"1 47667U 21012AZ  22319.83729434 -.00001713  00000-0 -96125-4 0  9994","INCLINATION":"53.0549","EPHEMERIS_TYPE":"0","CLASSIFICATION_TYPE":"U","MEAN_ELEMENT_THEORY":"SGP4"},{"ARG_OF_PERICENTER":"96.1865","ECCENTRICITY":"0.00012920","TLE_LINE1":"1 47668U 21012BA  22319.74699483  .00004010  00000-0  28792-3 0  9990","MEAN_ELEMENT_THEORY":"SGP4","INCLINATION":"53.0547","CLASSIFICATION_TYPE":"U","EPHEMERIS_TYPE":"0","LAUNCH_DATE":"2021-02-16","RCS_SIZE":"LARGE","OBJECT_NAME":"STARLINK-2059","OBJECT_ID":"2021-012BA","PERIOD":"95.592","MEAN_MOTION_DDOT":"0.0000000000000","MEAN_MOTION":"15.06399791","SEMIMAJOR_AXIS":"6925.349","TLE_LINE2":"2 47668  53.0547  83.2588 0001292  96.1865 263.9271 15.06399791 97905","FILE":"3657961","RA_OF_ASC_NODE":"83.2588","SITE":"AFETR","REV_AT_EPOCH":"9790","DECAY_DATE":null,"NORAD_CAT_ID":"47668","EPOCH":"2022-11-15T17:55:40.353312","MEAN_ANOMALY":"263.9271","BSTAR":"0.00028792000000","GP_ID":"217903543","COUNTRY_CODE":"US","CENTER_NAME":"EARTH","ELEMENT_SET_NO":"999","OBJECT_TYPE":"PAYLOAD","MEAN_MOTION_DOT":"0.00004010","PERIAPSIS":"546.319","APOAPSIS":"548.109","REF_FRAME":"TEME","TIME_SYSTEM":"UTC"},{"APOAPSIS":"524.597","PERIAPSIS":"519.885","REF_FRAME":"TEME","TIME_SYSTEM":"UTC","ELEMENT_SET_NO":"999","COUNTRY_CODE":"US","CENTER_NAME":"EARTH","GP_ID":"217904794","OBJECT_TYPE":"PAYLOAD","MEAN_MOTION_DOT":"0.00021491","DECAY_DATE":null,"EPOCH":"2022-11-15T14:52:55.362144","MEAN_ANOMALY":"346.9749","NORAD_CAT_ID":"47669","BSTAR":"0.00116370000000","FILE":"3657961","TLE_LINE2":"2 47669  53.0541   3.3282 0003414  13.1332 346.9749 15.14584849 98980","RA_OF_ASC_NODE":"3.3282","SITE":"AFETR","REV_AT_EPOCH":"9898","MEAN_MOTION_DDOT":"0.0000000000000","SEMIMAJOR_AXIS":"6900.376","MEAN_MOTION":"15.14584849","RCS_SIZE":"LARGE","OBJECT_NAME":"STARLINK-2060","LAUNCH_DATE":"2021-02-16","OBJECT_ID":"2021-012BB","PERIOD":"95.076","MEAN_ELEMENT_THEORY":"SGP4","INCLINATION":"53.0541","CLASSIFICATION_TYPE":"U","EPHEMERIS_TYPE":"0","ECCENTRICITY":"0.00034140","ARG_OF_PERICENTER":"13.1332","TLE_LINE1":"1 47669U 21012BB  22319.62008521  .00021491  00000-0  11637-2 0  9996"},{"ECCENTRICITY":"0.00014300","ARG_OF_PERICENTER":"88.1110","TLE_LINE1":"1 47670U 21012BC  22319.69538833  .00000986  00000-0  85057-4 0  9994","MEAN_ELEMENT_THEORY":"SGP4","INCLINATION":"53.0565","EPHEMERIS_TYPE":"0","CLASSIFICATION_TYPE":"U","RCS_SIZE":"LARGE","OBJECT_NAME":"STARLINK-2062","LAUNCH_DATE":"2021-02-16","OBJECT_ID":"2021-012BC","PERIOD":"95.592","MEAN_MOTION_DDOT":"0.0000000000000","SEMIMAJOR_AXIS":"6925.352","MEAN_MOTION":"15.06398775","TLE_LINE2":"2 47670  53.0565  83.5001 0001430  88.1110 272.0043 15.06398775 97885","FILE":"3657961","RA_OF_ASC_NODE":"83.5001","SITE":"AFETR","REV_AT_EPOCH":"9788","DECAY_DATE":null,"EPOCH":"2022-11-15T16:41:21.551712","MEAN_ANOMALY":"272.0043","NORAD_CAT_ID":"47670","BSTAR":"0.00008505700000","COUNTRY_CODE":"US","CENTER_NAME":"EARTH","ELEMENT_SET_NO":"999","GP_ID":"217904545","OBJECT_TYPE":"PAYLOAD","MEAN_MOTION_DOT":"0.00000986","APOAPSIS":"548.208","PERIAPSIS":"546.227","TIME_SYSTEM":"UTC","REF_FRAME":"TEME"},{"COUNTRY_CODE":"US","CENTER_NAME":"EARTH","ELEMENT_SET_NO":"999","GP_ID":"217903793","OBJECT_TYPE":"PAYLOAD","MEAN_MOTION_DOT":"0.00002663","APOAPSIS":"548.035","PERIAPSIS":"546.398","REF_FRAME":"TEME","TIME_SYSTEM":"UTC","TLE_LINE2":"2 47671  53.0558  82.9681 0001182  94.7987 265.3137 15.06399002 97911","FILE":"3657961","RA_OF_ASC_NODE":"82.9681","SITE":"AFETR","REV_AT_EPOCH":"9791","DECAY_DATE":null,"EPOCH":"2022-11-15T19:25:54.621408","MEAN_ANOMALY":"265.3137","NORAD_CAT_ID":"47671","BSTAR":"0.00019761000000","RCS_SIZE":"LARGE","OBJECT_NAME":"STARLINK-2064","LAUNCH_DATE":"2021-02-16","OBJECT_ID":"2021-012BD","PERIOD":"95.592","MEAN_MOTION_DDOT":"0.0000000000000","SEMIMAJOR_AXIS":"6925.352","MEAN_MOTION":"15.06399002","ECCENTRICITY":"0.00011820","ARG_OF_PERICENTER":"94.7987","TLE_LINE1":"1 47671U 21012BD  22319.80965997  .00002663  00000-0  19761-3 0  9995","MEAN_ELEMENT_THEORY":"SGP4","INCLINATION":"53.0558","CLASSIFICATION_TYPE":"U","EPHEMERIS_TYPE":"0"},{"SITE":"AFETR","REV_AT_EPOCH":"9799","TLE_LINE2":"2 47672  53.0542  73.9792 0001271  98.7389 261.3744 15.06399980 97990","FILE":"3657603","RA_OF_ASC_NODE":"73.9792","BSTAR":"0.00018757000000","DECAY_DATE":null,"EPOCH":"2022-11-15T14:08:46.050432","MEAN_ANOMALY":"261.3744","NORAD_CAT_ID":"47672","MEAN_MOTION_DOT":"0.00002514","ELEMENT_SET_NO":"999","COUNTRY_CODE":"US","CENTER_NAME":"EARTH","GP_ID":"217845948","OBJECT_TYPE":"PAYLOAD","TIME_SYSTEM":"UTC","REF_FRAME":"TEME","APOAPSIS":"548.094","PERIAPSIS":"546.333","ECCENTRICITY":"0.00012710","ARG_OF_PERICENTER":"98.7389","TLE_LINE1":"1 47672U 21012BE  22319.58942188  .00002514  00000-0  18757-3 0  9997","INCLINATION":"53.0542","CLASSIFICATION_TYPE":"U","EPHEMERIS_TYPE":"0","MEAN_ELEMENT_THEORY":"SGP4","OBJECT_ID":"2021-012BE","PERIOD":"95.592","RCS_SIZE":"LARGE","OBJECT_NAME":"STARLINK-2065","LAUNCH_DATE":"2021-02-16","SEMIMAJOR_AXIS":"6925.349","MEAN_MOTION":"15.06399980","MEAN_MOTION_DDOT":"0.0000000000000"}];
